[{"OBJECT_NAME":"ATLAS CENTAUR 2","OBJECT_ID":"1963-047A","EPOCH":"2026-03-03T19:41:29.300928","MEAN_MOTION":14.12046989,"ECCENTRICITY":0.054781,"INCLINATION":30.3522,"RA_OF_ASC_NODE":228.4444,"ARG_OF_PERICENTER":28.5612,"MEAN_ANOMALY":334.3898,"EPHEMERIS_TYPE":0,"CLASSIFICATION_TYPE":"U","NORAD_CAT_ID":694,"ELEMENT_SET_NO":999,"REV_AT_EPOCH":13079,"BSTAR":0.00020894741,"MEAN_MOTION_DOT":1.791e-5,"MEAN_MOTION_DDOT":0},{"OBJECT_NAME":"THOR AGENA D R/B","OBJECT_ID":"1964-002A","EPOCH":"2026-03-04T00:14:28.847904","MEAN_MOTION":14.34016368,"ECCENTRICITY":0.0031918,"INCLINATION":99.1227,"RA_OF_ASC_NODE":76.038,"ARG_OF_PERICENTER":275.0965,"MEAN_ANOMALY":84.6575,"EPHEMERIS_TYPE":0,"CLASSIFICATION_TYPE":"U","NORAD_CAT_ID":733,"ELEMENT_SET_NO":999,"REV_AT_EPOCH":23748,"BSTAR":0.0001324,"MEAN_MOTION_DOT":3.23e-6,"MEAN_MOTION_DDOT":0},{"OBJECT_NAME":"SL-3 R/B","OBJECT_ID":"1964-053B","EPOCH":"2026-03-04T03:34:10.180416","MEAN_MOTION":14.6136244,"ECCENTRICITY":0.007952,"INCLINATION":65.0789,"RA_OF_ASC_NODE":347.4811,"ARG_OF_PERICENTER":293.9802,"MEAN_ANOMALY":65.2986,"EPHEMERIS_TYPE":0,"CLASSIFICATION_TYPE":"U","NORAD_CAT_ID":877,"ELEMENT_SET_NO":999,"REV_AT_EPOCH":26598,"BSTAR":0.00012435,"MEAN_MOTION_DOT":5.18e-6,"MEAN_MOTION_DDOT":0},{"OBJECT_NAME":"SL-8 R/B","OBJECT_ID":"1967-045B","EPOCH":"2026-03-04T02:35:36.155040","MEAN_MOTION":14.45616477,"ECCENTRICITY":0.0063959,"INCLINATION":74.0136,"RA_OF_ASC_NODE":358.5118,"ARG_OF_PERICENTER":6.0982,"MEAN_ANOMALY":354.0939,"EPHEMERIS_TYPE":0,"CLASSIFICATION_TYPE":"U","NORAD_CAT_ID":2802,"ELEMENT_SET_NO":999,"REV_AT_EPOCH":8821,"BSTAR":0.00018134,"MEAN_MOTION_DOT":6.29e-6,"MEAN_MOTION_DDOT":0},{"OBJECT_NAME":"SL-8 R/B","OBJECT_ID":"1968-040B","EPOCH":"2026-03-04T02:51:50.745312","MEAN_MOTION":15.03211365,"ECCENTRICITY":0.0024146,"INCLINATION":74.033,"RA_OF_ASC_NODE":325.0759,"ARG_OF_PERICENTER":150.7339,"MEAN_ANOMALY":209.5208,"EPHEMERIS_TYPE":0,"CLASSIFICATION_TYPE":"U","NORAD_CAT_ID":3230,"ELEMENT_SET_NO":999,"REV_AT_EPOCH":8917,"BSTAR":0.00035912,"MEAN_MOTION_DOT":4.851e-5,"MEAN_MOTION_DDOT":0},{"OBJECT_NAME":"OAO 2","OBJECT_ID":"1968-110A","EPOCH":"2026-03-04T01:22:14.296224","MEAN_MOTION":14.47304053,"ECCENTRICITY":0.0005262,"INCLINATION":34.9934,"RA_OF_ASC_NODE":296.6723,"ARG_OF_PERICENTER":160.07,"MEAN_ANOMALY":200.0197,"EPHEMERIS_TYPE":0,"CLASSIFICATION_TYPE":"U","NORAD_CAT_ID":3597,"ELEMENT_SET_NO":999,"REV_AT_EPOCH":1828,"BSTAR":0.00011002,"MEAN_MOTION_DOT":3.89e-6,"MEAN_MOTION_DDOT":0},{"OBJECT_NAME":"ISIS 1","OBJECT_ID":"1969-009A","EPOCH":"2026-03-03T18:57:33.096960","MEAN_MOTION":11.30412171,"ECCENTRICITY":0.1707826,"INCLINATION":88.4548,"RA_OF_ASC_NODE":155.9518,"ARG_OF_PERICENTER":101.0636,"MEAN_ANOMALY":278.6409,"EPHEMERIS_TYPE":0,"CLASSIFICATION_TYPE":"U","NORAD_CAT_ID":3669,"ELEMENT_SET_NO":999,"REV_AT_EPOCH":34786,"BSTAR":0.00015275,"MEAN_MOTION_DOT":2.38e-6,"MEAN_MOTION_DDOT":0},{"OBJECT_NAME":"SERT 2","OBJECT_ID":"1970-009A","EPOCH":"2026-03-03T19:20:59.782272","MEAN_MOTION":13.58729269,"ECCENTRICITY":0.0004818,"INCLINATION":99.2752,"RA_OF_ASC_NODE":6.222,"ARG_OF_PERICENTER":170.1085,"MEAN_ANOMALY":244.4876,"EPHEMERIS_TYPE":0,"CLASSIFICATION_TYPE":"U","NORAD_CAT_ID":4327,"ELEMENT_SET_NO":999,"REV_AT_EPOCH":77909,"BSTAR":7.0171e-5,"MEAN_MOTION_DOT":1.0e-7,"MEAN_MOTION_DDOT":0},{"OBJECT_NAME":"SL-3 R/B","OBJECT_ID":"1971-028B","EPOCH":"2026-03-04T03:25:52.097376","MEAN_MOTION":15.60582553,"ECCENTRICITY":0.0014051,"INCLINATION":81.2337,"RA_OF_ASC_NODE":58.8773,"ARG_OF_PERICENTER":309.5058,"MEAN_ANOMALY":50.4951,"EPHEMERIS_TYPE":0,"CLASSIFICATION_TYPE":"U","NORAD_CAT_ID":5118,"ELEMENT_SET_NO":999,"REV_AT_EPOCH":98780,"BSTAR":0.00065144,"MEAN_MOTION_DOT":0.00054334,"MEAN_MOTION_DDOT":0},{"OBJECT_NAME":"ASTEX 1","OBJECT_ID":"1971-089A","EPOCH":"2026-03-04T03:59:41.075232","MEAN_MOTION":14.50763158,"ECCENTRICITY":0.0017839,"INCLINATION":92.713,"RA_OF_ASC_NODE":149.9737,"ARG_OF_PERICENTER":102.1504,"MEAN_ANOMALY":258.1701,"EPHEMERIS_TYPE":0,"CLASSIFICATION_TYPE":"U","NORAD_CAT_ID":5560,"ELEMENT_SET_NO":999,"REV_AT_EPOCH":86150,"BSTAR":0.00017728,"MEAN_MOTION_DOT":6.98e-6,"MEAN_MOTION_DDOT":0},{"OBJECT_NAME":"SL-8 R/B","OBJECT_ID":"1971-119B","EPOCH":"2026-03-03T21:10:11.460576","MEAN_MOTION":14.3767324,"ECCENTRICITY":0.0549869,"INCLINATION":73.8877,"RA_OF_ASC_NODE":186.5709,"ARG_OF_PERICENTER":154.4125,"MEAN_ANOMALY":208.5383,"EPHEMERIS_TYPE":0,"CLASSIFICATION_TYPE":"U","NORAD_CAT_ID":5730,"ELEMENT_SET_NO":999,"REV_AT_EPOCH":65465,"BSTAR":0.00085297,"MEAN_MOTION_DOT":0.00016424,"MEAN_MOTION_DDOT":0},{"OBJECT_NAME":"OAO 3 (COPERNICUS)","OBJECT_ID":"1972-065A","EPOCH":"2026-03-04T01:44:09.740544","MEAN_MOTION":14.59992742,"ECCENTRICITY":0.0005998,"INCLINATION":35.0067,"RA_OF_ASC_NODE":329.32,"ARG_OF_PERICENTER":118.3089,"MEAN_ANOMALY":8.0632,"EPHEMERIS_TYPE":0,"CLASSIFICATION_TYPE":"U","NORAD_CAT_ID":6153,"ELEMENT_SET_NO":999,"REV_AT_EPOCH":84537,"BSTAR":0.00011701,"MEAN_MOTION_DOT":5.49e-6,"MEAN_MOTION_DDOT":0},{"OBJECT_NAME":"ATLAS CENTAUR R/B","OBJECT_ID":"1972-065B","EPOCH":"2026-03-04T03:40:15.783744","MEAN_MOTION":14.77669938,"ECCENTRICITY":0.0034145,"INCLINATION":35.0028,"RA_OF_ASC_NODE":338.2004,"ARG_OF_PERICENTER":322.4837,"MEAN_ANOMALY":37.3482,"EPHEMERIS_TYPE":0,"CLASSIFICATION_TYPE":"U","NORAD_CAT_ID":6155,"ELEMENT_SET_NO":999,"REV_AT_EPOCH":84044,"BSTAR":0.00026533,"MEAN_MOTION_DOT":1.926e-5,"MEAN_MOTION_DDOT":0},{"OBJECT_NAME":"SL-8 R/B","OBJECT_ID":"1975-112B","EPOCH":"2026-03-04T01:51:31.775040","MEAN_MOTION":14.3819972,"ECCENTRICITY":0.0014555,"INCLINATION":74.0617,"RA_OF_ASC_NODE":29.2353,"ARG_OF_PERICENTER":124.802,"MEAN_ANOMALY":235.4506,"EPHEMERIS_TYPE":0,"CLASSIFICATION_TYPE":"U","NORAD_CAT_ID":8459,"ELEMENT_SET_NO":999,"REV_AT_EPOCH":63106,"BSTAR":0.00011015,"MEAN_MOTION_DOT":3.09e-6,"MEAN_MOTION_DDOT":0},{"OBJECT_NAME":"SL-3 R/B","OBJECT_ID":"1977-057B","EPOCH":"2026-03-04T03:36:40.658112","MEAN_MOTION":15.45307281,"ECCENTRICITY":0.0006362,"INCLINATION":97.576,"RA_OF_ASC_NODE":234.8286,"ARG_OF_PERICENTER":308.173,"MEAN_ANOMALY":51.8945,"EPHEMERIS_TYPE":0,"CLASSIFICATION_TYPE":"U","NORAD_CAT_ID":10114,"ELEMENT_SET_NO":999,"REV_AT_EPOCH":66747,"BSTAR":0.00039355,"MEAN_MOTION_DOT":0.00018689,"MEAN_MOTION_DDOT":0},{"OBJECT_NAME":"SEASAT 1","OBJECT_ID":"1978-064A","EPOCH":"2026-03-04T00:45:21.738240","MEAN_MOTION":14.46155301,"ECCENTRICITY":0.0002188,"INCLINATION":108.0122,"RA_OF_ASC_NODE":113.6266,"ARG_OF_PERICENTER":287.6768,"MEAN_ANOMALY":72.4138,"EPHEMERIS_TYPE":0,"CLASSIFICATION_TYPE":"U","NORAD_CAT_ID":10967,"ELEMENT_SET_NO":999,"REV_AT_EPOCH":50569,"BSTAR":0.00013283,"MEAN_MOTION_DOT":3.38e-6,"MEAN_MOTION_DDOT":0},{"OBJECT_NAME":"SL-14 R/B","OBJECT_ID":"1979-011B","EPOCH":"2026-03-04T03:32:50.686368","MEAN_MOTION":14.9190089,"ECCENTRICITY":0.0017592,"INCLINATION":82.5214,"RA_OF_ASC_NODE":101.8309,"ARG_OF_PERICENTER":77.5062,"MEAN_ANOMALY":282.8125,"EPHEMERIS_TYPE":0,"CLASSIFICATION_TYPE":"U","NORAD_CAT_ID":11267,"ELEMENT_SET_NO":999,"REV_AT_EPOCH":52795,"BSTAR":7.6831e-5,"MEAN_MOTION_DOT":8.04e-6,"MEAN_MOTION_DDOT":0}]
