ATLAS CENTAUR 2         
1 00694U 63047A   26062.82047802  .00001791  00000+0  20895-3 0  9990
2 00694  30.3522 228.4444 0547810  28.5612 334.3898 14.12046989130795
THOR AGENA D R/B        
1 00733U 64002A   26063.01005611  .00000323  00000+0  13240-3 0  9996
2 00733  99.1227  76.0380 0031918 275.0965  84.6575 14.34016368237480
SL-3 R/B                
1 00877U 64053B   26063.14872894  .00000518  00000+0  12435-3 0  9991
2 00877  65.0789 347.4811 0079520 293.9802  65.2986 14.61362440265980
SL-8 R/B                
1 02802U 67045B   26063.10805735  .00000629  00000+0  18134-3 0  9996
2 02802  74.0136 358.5118 0063959   6.0982 354.0939 14.45616477 88210
SL-8 R/B                
1 03230U 68040B   26063.11933733  .00004851  00000+0  35912-3 0  9993
2 03230  74.0330 325.0759 0024146 150.7339 209.5208 15.03211365 89171
OAO 2                   
1 03597U 68110A   26063.05710991  .00000389  00000+0  11002-3 0  9995
2 03597  34.9934 296.6723 0005262 160.0700 200.0197 14.47304053 18281
ISIS 1                  
1 03669U 69009A   26062.78996640  .00000238  00000+0  15275-3 0  9998
2 03669  88.4548 155.9518 1707826 101.0636 278.6409 11.30412171347860
SERT 2                  
1 04327U 70009A   26062.80624748  .00000010  00000+0  70171-4 0  9997
2 04327  99.2752   6.2220 0004818 170.1085 244.4876 13.58729269779096
SL-3 R/B                
1 05118U 71028B   26063.14296409  .00054334  00000+0  65144-3 0  9996
2 05118  81.2337  58.8773 0014051 309.5058  50.4951 15.60582553987806
ASTEX 1                 
1 05560U 71089A   26063.16644763  .00000698  00000+0  17728-3 0  9995
2 05560  92.7130 149.9737 0017839 102.1504 258.1701 14.50763158861505
SL-8 R/B                
1 05730U 71119B   26062.88207709  .00016424  00000+0  85297-3 0  9991
2 05730  73.8877 186.5709 0549869 154.4125 208.5383 14.37673240654658
OAO 3 (COPERNICUS)      
1 06153U 72065A   26063.07233496  .00000549  00000+0  11701-3 0  9996
2 06153  35.0067 329.3200 0005998 118.3089   8.0632 14.59992742845376
ATLAS CENTAUR R/B       
1 06155U 72065B   26063.15296046  .00001926  00000+0  26533-3 0  9996
2 06155  35.0028 338.2004 0034145 322.4837  37.3482 14.77669938840440
SL-8 R/B                
1 08459U 75112B   26063.07745110  .00000309  00000+0  11015-3 0  9996
2 08459  74.0617  29.2353 0014555 124.8020 235.4506 14.38199720631069
SL-3 R/B                
1 10114U 77057B   26063.15047058  .00018689  00000+0  39355-3 0  9999
2 10114  97.5760 234.8286 0006362 308.1730  51.8945 15.45307281667473
SEASAT 1                
1 10967U 78064A   26063.03150160  .00000338  00000+0  13283-3 0  9994
2 10967 108.0122 113.6266 0002188 287.6768  72.4138 14.46155301505697
SL-14 R/B               
1 11267U 79011B   26063.14780887  .00000804  00000+0  76831-4 0  9995
2 11267  82.5214 101.8309 0017592  77.5062 282.8125 14.91900890527951
